#cP2018 10 10  0  0  0.00000000      96 ORBIT IGS14 HLM  IGS
## 2022 259200.00000000   900.00000000 58401 0.0000000000000
+   32   G01G02G03G04G05G06G07G08G09G10G11G12G13G14G15G16G17
+        G18G19G20G21G22G23G24G25G26G27G28G29G30G31G32  0  0
+          0  0  0  0  0  0  0  0  0  0  0  0  0  0  0  0  0
+          0  0  0  0  0  0  0  0  0  0  0  0  0  0  0  0  0
+          0  0  0  0  0  0  0  0  0  0  0  0  0  0  0  0  0
++         2  2  2  0  2  2  2  2  3  2  2  2  2  2  2  2  2
++         2  2  2  2  2  3  2  2  2  2  2  2  2  2  2  0  0
++         0  0  0  0  0  0  0  0  0  0  0  0  0  0  0  0  0
++         0  0  0  0  0  0  0  0  0  0  0  0  0  0  0  0  0
++         0  0  0  0  0  0  0  0  0  0  0  0  0  0  0  0  0
%c G  cc GPS ccc cccc cccc cccc cccc ccccc ccccc ccccc ccccc
%c cc cc ccc ccc cccc cccc cccc cccc ccccc ccccc ccccc ccccc
%f  1.2500000  1.025000000  0.00000000000  0.000000000000000
%f  0.0000000  0.000000000  0.00000000000  0.000000000000000
%i    0    0    0    0      0      0      0      0         0
%i    0    0    0    0      0      0      0      0         0
/* FINAL ORBIT COMBINATION FROM WEIGHTED AVERAGE OF:        
/* cod emr esa gfz grg jpl mit ngs sio                      
/* REFERENCED TO IGS TIME (IGST) AND TO WEIGHTED MEAN POLE: 
/* PCV:IGS14_2022 OL/AL:FES2004  NONE     Y  ORB:CMB CLK:CMB
*  2018 10 10  6 45  0.00000000
PG01   9504.207758 -20101.054893 -14465.438842    -98.432302  6  6  4  92       
PG02 -21227.044461  14977.813809  -4334.980696    -25.667482  6  4  3 100       
PG03   -645.478429 -16109.409060 -21154.612808    147.177281  6  6  4 100       
PG04  14689.581715  -3662.040437  21583.302782 999999.999999
PG05 -19115.563479   6262.754726  17330.318522     -1.016188  5  6  7 102       
PG06 -20378.012444   1573.812962 -16943.540999    351.940810  4  6  5 116       
PG07  -5841.818723 -14663.493226  21545.227415    109.504230  5  8  5 113       
PG08   7217.199648 -20451.975817  15268.478467   -117.958481  5  8  8  89       
PG09  -7005.836701 -25313.231587   3898.355861 999999.999999
PG10  24156.992219  11053.100284   2242.595887    175.965543  4  7  3  91       
PG11   7906.181437 -25022.521929  -5316.226013   -711.095454  8  9  6  84       
PG12  -4949.479748  13969.814124 -22239.095895    300.977747  7  7  5  96       
PG13 -12584.940893  13594.454255  18914.201066    -87.295874  6  4  3  97       
PG14  15145.626285   3183.190331 -21301.562395    -96.711373  5  6  4  46       
PG15  -3369.099007  23268.265235  11727.413612   -343.413969  6  8  5  90       
PG16  20734.405556  -2037.147575  16558.788304      5.068721  3  7  5  93       
PG17 -13399.191107 -13799.832310 -17974.268969    -45.845847  6  6  5 118       
PG18  16123.378388 -20163.928624  -6350.951675     66.709494  5  6  4  97       
PG19 -14935.395011  -2517.581329 -22101.986855   -394.842046  6  6  3 100       
PG20  19357.956599  14057.098969  11531.068689    517.171816  6  8  6 103       
PG21   9877.376127  12522.007658  22041.941234   -323.597847  6  6  6 112       
PG22   7989.453569 -13960.193352 -20901.109421   -542.595107  6  1  6  92       
PG23  -1152.968903 -25891.186516  -4382.463695   -208.936133  6 10  8 100       
PG24 -12544.369290  20933.259919 -10222.172923    -56.464551  6  6  5 105       
PG25   9508.398908  17118.324966 -18234.521036   -659.416345  5  4  4  70       
PG26  25198.131662   3205.861895   8008.968066      4.998249     3  3  94       
PG27  12593.944617 -10312.649325  20846.102743     -3.392086  5  5  4 109       
PG28 -21810.582889 -14476.526877   4916.391570    749.066741  6  9  6  82       
PG29   4548.800664  25946.792996   3355.712518    360.083433  7 10  5  77       
PG30 -15683.172080  -6894.975414  20356.108910     12.434121  3  7  3 112       
PG31  21852.620779  -3352.350976 -14999.227371     87.888744  5  5  3  83       
PG32  15053.544141  11699.462487 -18490.646713   -397.686958  7  5  9  63       
*  2018 10 10  7  0  0.00000000
PG01  10777.985429 -20929.369820 -12164.160591    -98.436666  6  6  4  97       
PG02 -20910.941026  14261.329536  -7082.856045    -25.676981  6  3  3 107       
PG03   1669.522767 -15333.489866 -21663.875293    147.181591  6  6  5  95       
PG04  15396.731189  -1254.053352  21414.802533 999999.999999
PG05 -20860.214460   5501.607376  15511.449708     -1.015877  4  5  7  93       
PG06 -18919.084062    146.680902 -18620.169786    351.935881  4  6  5 115       
PG07  -3953.613989 -16124.415448  20872.695981    109.498069  5  8  5  99       
PG08   7737.664283 -18665.502747  17200.502730   -117.959371  4  8  8  93       
PG09  -6791.672216 -25650.967095   1076.419337    501.545850  8 10  5  54       
PG10  23691.303103  11139.945008   5049.435333    175.962805  4  7  3  88       
PG11   8415.848478 -25224.856303  -2632.786190   -711.092564  8  9  6  60       
PG12  -7238.236973  12978.811385 -22196.792524    300.975265  6  6  5 111       
PG13 -12833.860031  11348.727613  20179.898593    -87.294878  6  4  4  77       
PG14  15353.128242   5636.723037 -20659.877913    -96.711242  5  6  5  67       
PG15  -4072.714363  21881.159348  13957.571688   -343.412746  6  7  6  84       
PG16  22315.023051  -1201.654552  14513.935775      5.067390  3  7  5  78       
PG17 -13543.722684 -15812.923040 -16166.567236    -45.841704  6  6  5 108       
PG18  16694.704530 -20311.872506  -3581.589701     66.713601  5  5  4  47       
PG19 -15105.020357  -4942.856967 -21552.586120   -394.838572  7  5  3  92       
PG20  17865.821834  13993.392624  13765.437349    517.172594  7  8  7  98       
PG21   8163.741479  14121.125477  21770.042475   -323.592377  6  7  6  98       
PG22  10300.037796 -13230.259095 -20361.047686   -542.604293  6  3  6  93       
PG23   -691.873627 -25268.042868  -7123.232085   -208.935192  6 10  9  82       
PG24 -13495.836750  21407.767854  -7648.959693    -56.465065  6  6  5 118       
PG25   7474.468095  16493.835010 -19692.185553   -659.421267  5  4  5  72       
PG26  25841.473463   3682.445756   5312.588642      5.008618     4  4  92       
PG27  13111.558725  -7922.115112  21580.140226     -3.395914  4  4  4  92       
PG28 -21148.075078 -14367.231803   7702.613573    749.068259  6  9  6  60       
PG29   4391.469529  26188.241954    462.924594    360.076466  7 10  6  61       
PG30 -13854.492190  -8404.454195  21087.547305     12.429369  4  7  2  94       
PG31  20531.273194  -2097.886058 -16925.923639     87.886486  6  3  3  40       
PG32  15292.669284  13717.604788 -16845.749357   -397.675776  7  4  9  78       
*  2018 10 10  7 15  0.00000000
PG01  11810.201633 -21636.126466  -9652.093754    -98.440958  6  6  5  78       
PG02 -20423.246194  13299.826326  -9704.897046    -25.686740  6  4  3  85       
PG03   4057.684484 -14669.485364 -21801.780398    147.185896  6  5  5  92       
PG04  16211.229312   1070.564904  20871.303282 999999.999999
PG05 -22426.051955   4887.013751  13425.955560     -1.015834  4  5  7  91       
PG06 -17415.564022  -1477.051895 -19975.850891    351.930934  5  5  4  92       
PG07  -2209.428053 -17619.043892  19845.429907    109.492032  5  8  5  95       
PG08   8403.355460 -16714.785641  18835.712053   -117.959770  4  8  7  85       
PG09  -6514.344785 -25689.149417  -1764.054812    501.543771  8  8  6  37       
PG10  22931.316312  11165.494009   7770.357579    175.960154  5  7  2  87       
PG11   8809.687250 -25168.226885     95.107684   -711.089507  7  9  6  81       
PG12  -9556.672677  12126.649518 -21779.025672    300.973141  6  5  4  93       
PG13 -13216.888884   8995.871473  21094.854347    -87.294038  5  4  4  76       
PG14  15671.108261   7980.548982 -19654.142419    -96.710843  6  5  5  75       
PG15  -4916.403891  20300.316793  15939.538820   -343.411315  6  6  6  69       
PG16  23708.873015   -546.296578  12221.705365      5.065562  4  7  4  91       
PG17 -13757.026346 -17591.857568 -14074.256955    -45.837701  6  7  5  99       
PG18  17043.215165 -20256.653087   -750.454851     66.717316  5  5  4  84       
PG19 -15398.442144  -7275.857603 -20641.324210   -394.835327  7  4  4  72       
PG20  16135.714991  13960.055772  15762.415476    517.172827  7  8  7  97       
PG21   6567.906406  15772.023984  21149.404348   -323.586573  6  8  6  95       
PG22  12561.508104 -12625.008166 -19463.267256   -542.613914  6  5  6  77       
PG23   -121.527176 -24371.009535  -9737.169855   -208.934349  7 10  9  88       
PG24 -14218.461607  21710.351797  -4942.278603    -56.463891  6  5  5 111       
PG25   5269.286320  15940.822187 -20818.227589   -659.426289  5  4  5  59       
PG26  26209.718530   4045.482474   2525.561420      5.019002  1  5  3  96       
PG27  13773.215993  -5505.191811  21938.833124     -3.399725  4  4  3  95       
PG28 -20198.482770 -14182.057736  10358.413308    749.070099  6 10  6  83       
PG29   4188.363283  26114.635480  -2437.836569    360.069716  8 10  7  85       
PG30 -12054.646672 -10044.329540  21457.530570     12.424681  4  6  2  99       
PG31  19128.096459   -637.785758 -18565.588258     87.884059  6  1  4  61       
PG32  15585.641748  15523.638602 -14911.184423   -397.664576  7  4  9  91       
EOF
